[{"OBJECT_NAME":"STARLINK-31129","OBJECT_ID":"2023-203G","EPOCH":"2026-03-09T23:11:58.720704","MEAN_MOTION":15.27630951,"ECCENTRICITY":1.444e-5,"INCLINATION":43.002,"RA_OF_ASC_NODE":65.5363,"ARG_OF_PERICENTER":278.4306,"MEAN_ANOMALY":81.6529,"EPHEMERIS_TYPE":0,"CLASSIFICATION_TYPE":"U","NORAD_CAT_ID":58624,"ELEMENT_SET_NO":999,"REV_AT_EPOCH":12360,"BSTAR":0.00087632816,"MEAN_MOTION_DOT":0.00023968,"MEAN_MOTION_DDOT":0},{"OBJECT_NAME":"QAEM 100 R\/B","OBJECT_ID":"2024-165A","EPOCH":"2026-03-09T23:28:11.930304","MEAN_MOTION":15.14187295,"ECCENTRICITY":0.0059581,"INCLINATION":64.0756,"RA_OF_ASC_NODE":359.5576,"ARG_OF_PERICENTER":312.0209,"MEAN_ANOMALY":47.5844,"EPHEMERIS_TYPE":0,"CLASSIFICATION_TYPE":"U","NORAD_CAT_ID":61071,"ELEMENT_SET_NO":999,"REV_AT_EPOCH":8183,"BSTAR":0.0003372463,"MEAN_MOTION_DOT":6.252e-5,"MEAN_MOTION_DDOT":0}]
